SCD 1                   
1 22490U 93009B   22249.52118251  .00000313  00000+0  36390-4 0  9993
2 22490  24.9702  76.4905 0042762 312.1927  80.3245 14.44713963561297
TECHSAT 1B (GO-32)      
1 25397U 98043D   22249.45697375  .00000036  00000+0  35385-4 0  9991
2 25397  98.8239 200.1630 0000685 173.2229 186.8958 14.23768452254956
SCD 2                   
1 25504U 98060A   22249.50909854  .00000331  00000+0  42757-4 0  9993
2 25504  24.9957 291.7620 0017000 319.2741 151.4402 14.44225846260573
LANDSAT 7               
1 25682U 99020A   22249.51891544  .00000390  00000+0  90880-4 0  9999
2 25682  97.9719 294.5056 0001248 107.0124 253.1226 14.59794780244395
DLR-TUBSAT              
1 25757U 99029B   22249.40603676  .00000064  00000+0  27549-4 0  9996
2 25757  98.4924 192.7796 0013464 228.5652 131.4386 14.51515309233023
TERRA                   
1 25994U 99068A   22249.50209674  .00000239  00000+0  62793-4 0  9997
2 25994  98.1312 319.5409 0001370  82.4859 334.4239 14.57146727208421
MAROC-TUBSAT            
1 27004U 01056D   22249.37226588 -.00000016  00000+0  32735-4 0  9996
2 27004  99.6379  29.7972 0020662  84.6028 330.2756 13.70159967 37226
AQUA                    
1 27424U 02022A   22249.52298667  .00000493  00000+0  11880-3 0  9995
2 27424  98.2509 190.6626 0001495  54.8926  70.7030 14.57371713 81990
IRS-P6 (RESOURCESAT-1)  
1 28051U 03046A   22249.52163203  .00000247  00000+0  10101-3 0  9998
2 28051  98.3983 318.2394 0059719 136.0446 224.5515 14.34217690982643
SHIYAN 1 (SY-1)         
1 28220U 04012A   22249.54029876  .00003656  00000+0  28189-3 0  9991
2 28220  97.9813 243.9820 0011819  62.6413 297.6012 15.02223214  2194
AURA                    
1 28376U 04026A   22249.45749103  .00000490  00000+0  11886-3 0  9999
2 28376  98.2129 191.6433 0001539  74.9170 285.2199 14.57130882965029
IRS-P5 (CARTOSAT-1)     
1 28649U 05017A   22249.18643804  .00000649  00000+0  83616-4 0  9991
2 28649  97.7120 306.9532 0000886  28.1285 331.9978 14.84249678938714
SINAH 1                 
1 28893U 05043D   22249.30369007  .00000208  00000+0  51049-4 0  9991
2 28893  98.1208  11.4120 0013863 280.2840  79.6798 14.61739306898768
EROS B                  
1 29079U 06014A   22249.53539530  .00015074  00000+0  59456-3 0  9998
2 29079  97.3912   9.1933 0004178  36.9976  25.0641 15.25645459908736
RESURS-DK 1             
1 29228U 06021A   22249.52804155  .00000844  00000+0  69223-4 0  9992
2 29228  69.9340 282.3736 0007403 286.4734  73.5613 15.03380557894569
ARIRANG-2 (KOMPSAT-2)   
1 29268U 06031A   22249.57871434  .00000415  00000+0  90068-4 0  9991
2 29268  97.9444 115.1145 0015951 117.3775 242.9079 14.62832359859756
LAPAN-TUBSAT            
1 29709U 07001A   22249.48080366  .00000606  00000+0  81996-4 0  9997
2 29709  97.9742 211.8797 0012624 359.1528   0.9641 14.82549312846513
CARTOSAT-2 (IRS-P7)     
1 29710U 07001B   22248.84445760  .00024167  00000+0  56936-3 0  9994
2 29710  97.8703 359.1087 0146392 134.9135 226.4096 15.31421873848531
HAIYANG-1B              
1 31113U 07010A   22249.48854871  .00000048  00000+0  34351-4 0  9992
2 31113  98.3169 271.0606 0013199 337.6895  22.3713 14.30330833803358
COSMO-SKYMED 1          
1 31598U 07023A   22249.54951958  .00000716  00000+0  96492-4 0  9990
2 31598  97.8907  72.0507 0001435  89.3714 270.7684 14.82156586824974
TERRASAR-X              
1 31698U 07026A   22249.53620729 -.00002789  00000+0 -12968-3 0  9991
2 31698  97.4458 255.9879 0001708  84.5830  31.9150 15.19148199844424
WORLDVIEW-1 (WV-1)      
1 32060U 07041A   22249.47658436  .00005829  00000+0  24005-3 0  9992
2 32060  97.3928   7.7599 0005990 192.2174 167.8920 15.24477795832734
YAOGAN 3                
1 32289U 07055A   22249.58787796  .00001252  00000+0  16634-3 0  9999
2 32289  97.9462 270.8411 0001123  92.4665 267.6665 14.81511440801056
COSMO-SKYMED 2          
1 32376U 07059A   22249.51576247  .00000093  00000+0  18235-4 0  9992
2 32376  97.8903  72.0179 0001401  84.9245 275.2131 14.82154183797712
RADARSAT-2              
1 32382U 07061A   22249.58365483 -.00000002  00000+0  16107-4 0  9994
2 32382  98.5784 255.3427 0001175  92.3552  15.7553 14.29984110768892
CARTOSAT-2A             
1 32783U 08021A   22249.55545164  .00000735  00000+0  10720-3 0  9995
2 32783  97.9589 308.9390 0011288 264.1662  95.8263 14.78688731775006
HUANJING 1A (HJ-1A)     
1 33320U 08041A   22249.46445289  .00000619  00000+0  92582-4 0  9990
2 33320  97.6735 278.7076 0020169 332.1999  27.8130 14.77904103754352
HUANJING 1B (HJ-1B)     
1 33321U 08041B   22249.41511127  .00000922  00000+0  13395-3 0  9992
2 33321  97.6906 282.3888 0033845 349.5644  10.4859 14.77851296754348
GEOEYE 1                
1 33331U 08042A   22249.52842022  .00000360  00000+0  76739-4 0  9995
2 33331  98.1065 323.3313 0009315  28.0948 332.0770 14.64566023748234
THEOS                   
1 33396U 08049A   22249.62254257  .00000080  00000+0  58406-4 0  9991
2 33396  98.7423 316.4290 0001140  87.9654  73.0328 14.20008193722180
COSMO-SKYMED 3          
1 33412U 08054A   22249.52589011  .00000541  00000+0  59135-4 0  9996
2 33412  97.8909  73.3697 0016917 206.0325 154.0048 14.91876822750264
YAOGAN 4                
1 33446U 08061A   22249.37927322  .00000479  00000+0  74168-4 0  9998
2 33446  97.8198 187.0609 0015004 229.0978 130.8934 14.77449522741546
GOSAT (IBUKI)           
1 33492U 09002A   22249.28054655  .00000479  00000+0  93044-4 0  9999
2 33492  98.1219   1.2681 0001470  83.2318 276.9054 14.67524150729071
YAOGAN 6                
1 34839U 09021A   22249.50597951  .00005043  00000+0  17380-3 0  9992
2 34839  97.0892 225.9305 0026149  12.3265 347.8610 15.30114838743626
DEIMOS-1                
1 35681U 09041A   22249.55541919  .00000761  00000+0  12837-3 0  9992
2 35681  97.7070  96.4396 0001224  25.6808 334.4478 14.72100817703701
DUBAISAT-1              
1 35682U 09041B   22249.41478287  .00000903  00000+0  16080-3 0  9997
2 35682  97.8133  39.1102 0011559 166.6218 193.5337 14.69271121702176
OCEANSAT-2              
1 35931U 09051A   22249.56578213 -.00040125  00000+0 -14494-1 0  9998
2 35931  98.2988 341.4139 0005118 212.0743 148.0170 14.33824775685853
WORLDVIEW-2 (WV-2)      
1 35946U 09055A   22249.56501525  .00000096  00000+0  46394-4 0  9998
2 35946  98.4821 323.6731 0002126 110.0006 250.1416 14.37659705677562
SMOS                    
1 36036U 09059A   22249.48066754  .00000193  00000+0  75587-4 0  9998
2 36036  98.4445  75.8315 0001116  85.6168 274.5148 14.39778248674928
YAOGAN 7                
1 36110U 09069A   22249.52830392  .00000757  00000+0  11932-3 0  9993
2 36110  98.1940 110.2699 0026436 145.7976 214.4925 14.75182972686094
TANDEM-X                
1 36605U 10030A   22248.13937918  .00001495  00000+0  74323-4 0  9994
2 36605  97.4437 254.6117 0001785  87.6488 314.5518 15.19162098676967
CARTOSAT-2B             
1 36795U 10035A   22249.52571111  .00000912  00000+0  13140-3 0  9994
2 36795  97.9535 309.0016 0013064 347.0181  13.0699 14.78664002656044
YAOGAN 10               
1 36834U 10038A   22249.53060042  .00000949  00000+0  12836-3 0  9999
2 36834  97.9771 259.9778 0001238 105.0183 255.1169 14.81334566652783
COSMO-SKYMED 4          
1 37216U 10060A   22249.46087890 -.00003806  00000+0 -47192-3 0  9991
2 37216  97.8905  71.9636 0001391 100.1454 259.9925 14.82144640640252
RESOURCESAT-2           
1 37387U 11015A   22249.48940690 -.00000126  00000+0 -37869-4 0  9992
2 37387  98.6566 320.4828 0004389 182.8650 177.2513 14.21656817590675
HAIYANG-2A              
1 37781U 11043A   22249.49700283 -.00000002  00000+0  40957-4 0  9998
2 37781  99.3195 253.9494 0001196  51.5221 308.6038 13.78744826556557
RASAT                   
1 37791U 11044D   22249.44192496  .00000628  00000+0  12571-3 0  9999
2 37791  98.0952 341.1804 0020906 232.4965 127.4338 14.65064101590977
MEGHA-TROPIQUES         
1 37838U 11058A   22249.08926330  .00000557  00000+0  99252-4 0  9991
2 37838  19.9757 157.1566 0107019  90.8002 270.4670 14.30420387495205
SRMSAT                  
1 37841U 11058D   22249.05234580  .00000354  00000+0  49234-4 0  9991
2 37841  19.9715 127.7212 0011952 149.5258 348.6249 14.10768817562632
YAOGAN 13               
1 37941U 11072A   22249.56230175  .00006354  00000+0  28206-3 0  9991
2 37941  97.6370 200.8633 0003656 103.7450   9.3592 15.21920394597139
PLEIADES 1A             
1 38012U 11076F   22249.46754295  .00000396  00000+0  94939-4 0  9995
2 38012  98.1944 323.3476 0001574 103.8436 256.2933 14.58544929570880
ZIYUAN 1-02C (ZY 1-02C) 
1 38038U 11079A   22249.43315115  .00000461  00000+0  17613-3 0  9993
2 38038  98.5822 313.6608 0007030  33.8941 326.2695 14.35332001561101
ZIYUAN 3-1 (ZY 3-1)     
1 38046U 12001A   22249.47140987  .00006136  00000+0  27682-3 0  9997
2 38046  97.3348 318.3560 0002857 118.1689   3.4791 15.21355828591929
ARIRANG-3 (KOMPSAT-3)   
1 38338U 12025B   22249.41638753  .00000402  00000+0  89684-4 0  9995
2 38338  98.1828 188.7170 0011967 118.3866 241.8513 14.61907618549805
KANOPUS-V 1             
1 38707U 12039A   22249.49610285  .00004409  00000+0  19218-3 0  9994
2 38707  97.4660 171.0633 0002073  95.9618  21.9569 15.22710560561722
EXACTVIEW-1 (ADS-1B)    
1 38709U 12039C   22249.42434268  .00000032  00000+0  34043-4 0  9996
2 38709  99.0032 317.8951 0011022 180.4656 179.6513 14.24116983526264
SPOT 6                  
1 38755U 12047A   22249.48221221  .00000171  00000+0  46577-4 0  9994
2 38755  98.2280 315.3431 0001111 108.4673 251.6634 14.58552924531968
PLEIADES 1B             
1 39019U 12068A   22249.50159660  .00000176  00000+0  47588-4 0  9999
2 39019  98.1905 323.3251 0001364 100.6530 259.4811 14.58565681519749
GOKTURK 2               
1 39030U 12073A   22249.41554070  .00000512  00000+0  87325-4 0  9999
2 39030  97.8430 125.7435 0002405  90.0915 270.0577 14.72910291521271
LANDSAT 8               
1 39084U 13008A   22249.45486802  .00000208  00000+0  56307-4 0  9996
2 39084  98.2167 318.7264 0001405  95.5247 264.6111 14.57101151496974
